{"fetched_at":"2026-03-30T13:17:50Z","count":15418,"tles":[{"name":"STARLINK-4181","line1":"1 52882U 22062BE  26087.81431869  .00001087  00000+0  86345-4 0  9995","line2":"2 52882  53.2165 287.8400 0001516  94.4240 265.6926 15.08841408208964","category":"Starlink"}]}